{
  "norad_id": 37749,
  "name": "KAZSAT-2",
  "history": [
    {
      "epoch": "2026-04-13T00:50:34.392192Z",
      "apogee_km": 35789.99957787571,
      "perigee_km": 35782.053319632156,
      "latitude_deg": 0.01905944086777277,
      "longitude_deg": 86.50651809591325,
      "height_km": 35788.97634831872,
      "semi_major_axis_km": 42164.163448753934,
      "eccentricity": 9.423e-05,
      "inclination_deg": 0.0336,
      "raan_deg": 299.2539,
      "arg_perigee_deg": 152.275,
      "mean_anomaly_deg": 208.859,
      "mean_motion_rev_day": 1.00273813
    },
    {
      "epoch": "2026-04-14T14:12:21.544128Z",
      "apogee_km": 35790.06223361484,
      "perigee_km": 35782.11849317957,
      "latitude_deg": -0.03067047288865174,
      "longitude_deg": 86.52650137183934,
      "height_km": 35782.85429894329,
      "semi_major_axis_km": 42164.22736339721,
      "eccentricity": 9.42e-05,
      "inclination_deg": 0.0349,
      "raan_deg": 298.569,
      "arg_perigee_deg": 157.6018,
      "mean_anomaly_deg": 46.2084,
      "mean_motion_rev_day": 1.00273585
    },
    {
      "epoch": "2026-04-15T19:34:56.047872Z",
      "apogee_km": 35789.88586255188,
      "perigee_km": 35782.38905455315,
      "latitude_deg": -0.031826651928963036,
      "longitude_deg": 86.52950137029717,
      "height_km": 35788.05477805486,
      "semi_major_axis_km": 42164.274458552514,
      "eccentricity": 8.89e-05,
      "inclination_deg": 0.0389,
      "raan_deg": 295.5388,
      "arg_perigee_deg": 158.3797,
      "mean_anomaly_deg": 130.3165,
      "mean_motion_rev_day": 1.00273417
    },
    {
      "epoch": "2026-04-16T15:52:21.543744Z",
      "apogee_km": 35790.34658168839,
      "perigee_km": 35782.35219506915,
      "latitude_deg": -0.04350860147317886,
      "longitude_deg": 86.53370842365169,
      "height_km": 35784.590094358595,
      "semi_major_axis_km": 42164.48638837877,
      "eccentricity": 9.48e-05,
      "inclination_deg": 0.0376,
      "raan_deg": 298.5721,
      "arg_perigee_deg": 159.3972,
      "mean_anomaly_deg": 71.4581,
      "mean_motion_rev_day": 1.00272661
    },
    {
      "epoch": "2026-04-17T22:55:07.375008Z",
      "apogee_km": 35790.225438304085,
      "perigee_km": 35782.25299804875,
      "latitude_deg": 0.0019087155179583215,
      "longitude_deg": 86.52580223107911,
      "height_km": 35789.69343307319,
      "semi_major_axis_km": 42164.37621817642,
      "eccentricity": 9.454e-05,
      "inclination_deg": 0.0434,
      "raan_deg": 292.6162,
      "arg_perigee_deg": 160.4612,
      "mean_anomaly_deg": 183.3194,
      "mean_motion_rev_day": 1.00273054
    },
    {
      "epoch": "2026-04-18T20:22:21.630144Z",
      "apogee_km": 35789.74508288097,
      "perigee_km": 35782.49283085638,
      "latitude_deg": -0.03318863851404028,
      "longitude_deg": 86.5350170716134,
      "height_km": 35788.48130516188,
      "semi_major_axis_km": 42164.25595686868,
      "eccentricity": 8.6e-05,
      "inclination_deg": 0.0416,
      "raan_deg": 290.4901,
      "arg_perigee_deg": 166.2602,
      "mean_anomaly_deg": 142.3385,
      "mean_motion_rev_day": 1.00273483
    },
    {
      "epoch": "2026-04-19T21:19:48.507168Z",
      "apogee_km": 35790.65152665254,
      "perigee_km": 35782.72453954631,
      "latitude_deg": -0.021628759080332256,
      "longitude_deg": 86.5342984253335,
      "height_km": 35789.71581186367,
      "semi_major_axis_km": 42164.82503309943,
      "eccentricity": 9.4e-05,
      "inclination_deg": 0.0389,
      "raan_deg": 292.369,
      "arg_perigee_deg": 168.7537,
      "mean_anomaly_deg": 153.351,
      "mean_motion_rev_day": 1.00271453
    },
    {
      "epoch": "2026-04-20T14:14:08.720736Z",
      "apogee_km": 35790.797843433495,
      "perigee_km": 35782.68194792862,
      "latitude_deg": -0.03895921708274504,
      "longitude_deg": 86.5390823809942,
      "height_km": 35783.47801991182,
      "semi_major_axis_km": 42164.87689568106,
      "eccentricity": 9.624e-05,
      "inclination_deg": 0.0373,
      "raan_deg": 294.0804,
      "arg_perigee_deg": 167.8515,
      "mean_anomaly_deg": 46.8195,
      "mean_motion_rev_day": 1.00271268
    },
    {
      "epoch": "2026-04-21T10:41:38.550048Z",
      "apogee_km": 35790.90762634225,
      "perigee_km": 35783.20741851856,
      "latitude_deg": 0.0025337002481786042,
      "longitude_deg": 86.53167362258034,
      "height_km": 35782.708119565934,
      "semi_major_axis_km": 42165.19452243041,
      "eccentricity": 9.131e-05,
      "inclination_deg": 0.0358,
      "raan_deg": 291.7009,
      "arg_perigee_deg": 165.3544,
      "mean_anomaly_deg": 359.4081,
      "mean_motion_rev_day": 1.00270135
    },
    {
      "epoch": "2026-04-22T19:18:08.914176Z",
      "apogee_km": 35790.39548955881,
      "perigee_km": 35781.87830623144,
      "latitude_deg": -0.03824536146503989,
      "longitude_deg": 86.54507730697304,
      "height_km": 35788.4955721662,
      "semi_major_axis_km": 42164.27389789513,
      "eccentricity": 0.000101,
      "inclination_deg": 0.0373,
      "raan_deg": 284.7545,
      "arg_perigee_deg": 170.0212,
      "mean_anomaly_deg": 132.1534,
      "mean_motion_rev_day": 1.00273419
    },
    {
      "epoch": "2026-04-23T08:58:23.357280Z",
      "apogee_km": 35791.53947743086,
      "perigee_km": 35783.27587398531,
      "latitude_deg": 0.01793266608101272,
      "longitude_deg": 86.5284807857199,
      "height_km": 35783.08741024755,
      "semi_major_axis_km": 42165.544675708086,
      "eccentricity": 9.799e-05,
      "inclination_deg": 0.0377,
      "raan_deg": 282.6326,
      "arg_perigee_deg": 172.614,
      "mean_anomaly_deg": 337.2987,
      "mean_motion_rev_day": 1.00268886
    }
  ]
}